OBJECT_NAME,OBJECT_ID,EPOCH,MEAN_MOTION,ECCENTRICITY,INCLINATION,RA_OF_ASC_NODE,ARG_OF_PERICENTER,MEAN_ANOMALY,EPHEMERIS_TYPE,CLASSIFICATION_TYPE,NORAD_CAT_ID,ELEMENT_SET_NO,REV_AT_EPOCH,BSTAR,MEAN_MOTION_DOT,MEAN_MOTION_DDOT
IRIDIUM 135,2017-083A,2026-07-10T05:52:43.270464,14.34217171,.00021812,86.3981,312.3761,93.4059,266.7386,0,U,43070,999,44745,.5247004E-5,.34E-6,0
IRIDIUM 138,2017-083B,2026-07-10T06:29:15.195264,14.34217438,.00020755,86.3996,312.0646,91.4896,268.6537,0,U,43071,999,44744,.49821849E-4,.159E-5,0
IRIDIUM 116,2017-083C,2026-07-09T18:00:18.736704,14.34219889,.00023862,86.3982,312.5688,99.5500,260.5966,0,U,43072,999,44740,.53058985E-4,.168E-5,0
IRIDIUM 130,2017-083D,2026-07-10T06:38:23.302176,14.34216740,.00021648,86.3991,312.6264,101.1268,259.0172,0,U,43073,999,44742,.4712155E-4,.152E-5,0
IRIDIUM 151,2017-083E,2026-07-09T14:57:39.173184,14.34216802,.00022092,86.3984,312.6799,95.3542,264.7906,0,U,43074,999,44735,.65618119E-4,.204E-5,0
IRIDIUM 134,2017-083F,2026-07-10T06:56:39.278400,14.34216635,.00020864,86.3984,312.4102,95.4790,264.6644,0,U,43075,999,44741,-.32095476E-4,-.7E-6,0
IRIDIUM 137,2017-083G,2026-07-10T07:14:55.346208,14.34217368,.00026474,86.3987,312.4981,95.6921,264.4577,0,U,43076,999,44748,.3960217E-4,.131E-5,0
IRIDIUM 141,2017-083H,2026-07-10T07:05:46.993056,14.34218284,.00021922,86.3981,312.3299,92.2897,267.8550,0,U,43077,999,44748,.5392576E-5,.35E-6,0
IRIDIUM 153,2017-083J,2026-07-10T05:56:55.389120,14.34217659,.0002115,86.3961,280.8301,94.2606,265.8831,0,U,43078,999,44858,.35355552E-4,.119E-5,0
IRIDIUM 131,2017-083K,2026-07-10T06:47:31.286400,14.34216775,.00020794,86.3985,312.5225,92.5828,267.5606,0,U,43079,999,44741,-.3813306E-4,-.87E-6,0
IRIDIUM 144,2018-030A,2026-07-10T06:06:03.432096,14.34217693,.00023826,86.3959,280.7559,96.9893,263.1574,0,U,43249,999,43344,-.1470777E-5,.16E-6,0
IRIDIUM 149,2018-030B,2026-07-10T04:34:43.457664,14.34217187,.00022405,86.3959,280.7492,93.7456,266.3996,0,U,43250,999,43345,.21200536E-4,.79E-6,0
IRIDIUM 157,2018-030C,2026-07-10T05:02:07.611648,14.34216466,.0002252,86.3961,280.7949,93.9359,266.2095,0,U,43251,999,43343,.10954022E-4,.5E-6,0
IRIDIUM 140,2018-030D,2026-07-09T16:05:47.431104,14.34216088,.00022018,86.3960,281.0330,95.6195,264.5252,0,U,43252,999,43341,.30101647E-4,.104E-5,0
IRIDIUM 145,2018-030E,2026-07-10T05:11:15.191520,14.34216263,.00024256,86.3956,280.7772,102.3392,257.8076,0,U,43253,999,43342,.23780921E-4,.86E-6,0
IRIDIUM 146,2018-030F,2026-07-10T04:43:51.321792,14.34217536,.00024049,86.3960,280.7972,98.0496,262.0973,0,U,43254,999,43343,.58026678E-4,.182E-5,0
IRIDIUM 148,2018-030G,2026-07-09T16:14:55.608864,14.34216500,.00023321,86.3963,281.0581,94.4283,265.7179,0,U,43255,999,43339,.28530727E-4,.1E-5,0
IRIDIUM 142,2018-030H,2026-07-09T15:29:15.482976,14.34217370,.00023826,86.3959,280.9595,98.6640,261.4826,0,U,43256,999,43335,.56510949E-4,.178E-5,0
IRIDIUM 150,2018-030J,2026-07-10T04:07:18.893280,14.34219143,.00022151,86.3963,280.8566,95.9860,264.1588,0,U,43257,999,43345,-.94435944E-4,-.245E-5,0
IRIDIUM 143,2018-030K,2026-07-09T15:56:39.379488,14.34217361,.00023088,86.3964,281.1619,98.1561,261.9897,0,U,43258,999,43331,.72745156E-4,.224E-5,0
IRIDIUM 161,2018-047C,2026-07-09T05:11:18.598272,14.43284336,.00023534,86.4469,79.2595,78.9993,281.1472,0,U,43478,999,42831,.55733535E-4,.208E-5,0
IRIDIUM 152,2018-047D,2026-07-09T05:14:34.891296,14.34218640,.00021729,86.3944,79.1199,82.5193,277.6250,0,U,43479,999,42564,.50953102E-4,.162E-5,0
IRIDIUM 147,2018-047E,2026-07-10T04:50:14.070336,14.34216920,.00022754,86.3943,78.7142,88.4445,271.7011,0,U,43480,999,42578,.70122931E-4,.216E-5,0
IRIDIUM 110,2018-047F,2026-07-10T03:18:54.315360,14.34217351,.00022182,86.3948,78.8334,76.9125,283.2318,0,U,43481,999,42576,.52221687E-4,.166E-5,0
IRIDIUM 162,2018-047G,2026-07-10T02:40:06.655296,14.43283456,.00021871,86.4467,78.7759,84.2783,275.8667,0,U,43482,999,42843,.50126108E-4,.189E-5,0
IRIDIUM 160,2018-061A,2026-07-10T00:20:26.459232,14.34217652,.00022527,86.3937,47.2497,86.2180,273.9273,0,U,43569,999,41664,.32630468E-4,.111E-5,0
IRIDIUM 166,2018-061B,2026-07-09T13:13:42.367584,14.34217868,.00022568,86.3942,47.3936,89.7499,270.3955,0,U,43570,999,41660,.343576E-6,.21E-6,0
IRIDIUM 158,2018-061C,2026-07-10T00:11:18.435264,14.34216771,.00020042,86.3938,47.2127,86.2707,273.8718,0,U,43571,999,41663,-.36731752E-4,-.83E-6,0
IRIDIUM 165,2018-061D,2026-07-09T13:04:34.349664,14.34216760,.00022568,86.3944,47.4530,90.6727,269.4727,0,U,43572,999,41659,.26099215E-4,.93E-6,0
IRIDIUM 155,2018-061E,2026-07-10T01:33:30.352896,14.34216576,.00019959,86.3934,47.1028,87.9666,272.1759,0,U,43573,999,41663,-.21530544E-4,-.41E-6,0
